{"type": "FeatureCollection", "features": [ {"type": "Feature", "properties": {"norad_id": 28649, "name": "IRS-P5 (CARTOSAT-1)", "group": "resource", "lat": 46.32005156667682, "lon": 2.7489948436429117, "alt_km": 591.7216816922601, "timestamp": "2025-12-10T04:57:29.262063+00:00", "meta": {"OBJECT_NAME": "IRS-P5 (CARTOSAT-1)", "OBJECT_ID": "2005-017A", "EPOCH": "2025-12-09T19:04:50.908224", "MEAN_MOTION": 14.90389909, "ECCENTRICITY": 0.0001402, "INCLINATION": 97.5497, "RA_OF_ASC_NODE": 10.3388, "ARG_OF_PERICENTER": 46.4373, "MEAN_ANOMALY": 313.6962, "EPHEMERIS_TYPE": 0, "CLASSIFICATION_TYPE": "U", "NORAD_CAT_ID": 28649, "ELEMENT_SET_NO": 999, "REV_AT_EPOCH": 11560, "BSTAR": 0.00025861, "MEAN_MOTION_DOT": 2.466e-05, "MEAN_MOTION_DDOT": 0}, "tle": {"line1": "1 28649U 05017A   25343.79503366  .00002466  00000+0  25861-3 0  9990", "line2": "2 28649  97.5497  10.3388 0001402  46.4373 313.6962 14.90389909115604"}}, "geometry": {"type": "Point", "coordinates": [2.7489948436429117, 46.32005156667682]}}, {"type": "Feature", "properties": {"norad_id": 28893, "name": "SINAH 1", "group": "resource", "lat": -76.27183581199677, "lon": 149.24507601784083, "alt_km": 695.5289767083113, "timestamp": "2025-12-10T04:57:29.262074+00:00", "meta": {"OBJECT_NAME": "SINAH 1", "OBJECT_ID": "2005-043D", "EPOCH": "2025-12-09T19:28:38.394336", "MEAN_MOTION": 14.63957879, "ECCENTRICITY": 0.00152, "INCLINATION": 98.2602, "RA_OF_ASC_NODE": 112.361, "ARG_OF_PERICENTER": 145.6717, "MEAN_ANOMALY": 214.547, "EPHEMERIS_TYPE": 0, "CLASSIFICATION_TYPE": "U", "NORAD_CAT_ID": 28893, "ELEMENT_SET_NO": 999, "REV_AT_EPOCH": 7281, "BSTAR": 0.00018448, "MEAN_MOTION_DOT": 9.18e-06, "MEAN_MOTION_DDOT": 0}, "tle": {"line1": "1 28893U 05043D   25343.81155549  .00000918  00000+0  18448-3 0  9992", "line2": "2 28893  98.2602 112.3610 0015200 145.6717 214.5470 14.63957879 72812"}}, "geometry": {"type": "Point", "coordinates": [149.24507601784083, -76.27183581199677]}}, {"type": "Feature", "properties": {"norad_id": 29079, "name": "EROS B", "group": "resource", "lat": 64.25029056025294, "lon": 85.14369449623578, "alt_km": 361.62068390252534, "timestamp": "2025-12-10T04:57:29.262085+00:00", "meta": {"OBJECT_NAME": "EROS B", "OBJECT_ID": "2006-014A", "EPOCH": "2025-12-09T19:29:08.602368", "MEAN_MOTION": 15.67048707, "ECCENTRICITY": 0.0001679, "INCLINATION": 97.3476, "RA_OF_ASC_NODE": 100.2485, "ARG_OF_PERICENTER": 284.7593, "MEAN_ANOMALY": 75.3481, "EPHEMERIS_TYPE": 0, "CLASSIFICATION_TYPE": "U", "NORAD_CAT_ID": 29079, "ELEMENT_SET_NO": 999, "REV_AT_EPOCH": 9034, "BSTAR": 0.0017975, "MEAN_MOTION_DOT": 0.00195346, "MEAN_MOTION_DDOT": 0}, "tle": {"line1": "1 29079U 06014A   25343.81190512  .00195346  00000+0  17975-2 0  9990", "line2": "2 29079  97.3476 100.2485 0001679 284.7593  75.3481 15.67048707 90345"}}, "geometry": {"type": "Point", "coordinates": [85.14369449623578, 64.25029056025294]}}, {"type": "Feature", "properties": {"norad_id": 29228, "name": "RESURS-DK 1", "group": "resource", "lat": 53.7156984179143, "lon": -101.47637194324264, "alt_km": 528.015011910943, "timestamp": "2025-12-10T04:57:29.262095+00:00", "meta": {"OBJECT_NAME": "RESURS-DK 1", "OBJECT_ID": "2006-021A", "EPOCH": "2025-12-09T18:53:58.310016", "MEAN_MOTION": 15.12136626, "ECCENTRICITY": 0.0007519, "INCLINATION": 69.9336, "RA_OF_ASC_NODE": 109.4675, "ARG_OF_PERICENTER": 261.958, "MEAN_ANOMALY": 98.0733, "EPHEMERIS_TYPE": 0, "CLASSIFICATION_TYPE": "U", "NORAD_CAT_ID": 29228, "ELEMENT_SET_NO": 999, "REV_AT_EPOCH": 7393, "BSTAR": 0.00027732, "MEAN_MOTION_DOT": 4.688e-05, "MEAN_MOTION_DDOT": 0}, "tle": {"line1": "1 29228U 06021A   25343.78748044  .00004688  00000+0  27732-3 0  9990", "line2": "2 29228  69.9336 109.4675 0007519 261.9580  98.0733 15.12136626 73931"}}, "geometry": {"type": "Point", "coordinates": [-101.47637194324264, 53.7156984179143]}}, {"type": "Feature", "properties": {"norad_id": 29268, "name": "ARIRANG-2 (KOMPSAT-2)", "group": "resource", "lat": -1.6258808492293895, "lon": -7.420835181446218, "alt_km": 688.9060385811708, "timestamp": "2025-12-10T04:57:29.262106+00:00", "meta": {"OBJECT_NAME": "ARIRANG-2 (KOMPSAT-2)", "OBJECT_ID": "2006-031A", "EPOCH": "2025-12-09T20:29:45.851424", "MEAN_MOTION": 14.64489831, "ECCENTRICITY": 0.001365, "INCLINATION": 97.826, "RA_OF_ASC_NODE": 172.4676, "ARG_OF_PERICENTER": 319.131, "MEAN_ANOMALY": 164.7256, "EPHEMERIS_TYPE": 0, "CLASSIFICATION_TYPE": "U", "NORAD_CAT_ID": 29268, "ELEMENT_SET_NO": 999, "REV_AT_EPOCH": 3376, "BSTAR": 0.00013834, "MEAN_MOTION_DOT": 6.89e-06, "MEAN_MOTION_DDOT": 0}, "tle": {"line1": "1 29268U 06031A   25343.85400291  .00000689  00000+0  13834-3 0  9997", "line2": "2 29268  97.8260 172.4676 0013650 319.1310 164.7256 14.64489831 33765"}}, "geometry": {"type": "Point", "coordinates": [-7.420835181446218, -1.6258808492293895]}}, {"type": "Feature", "properties": {"norad_id": 29709, "name": "LAPAN-TUBSAT", "group": "resource", "lat": -74.51465162929611, "lon": 5.355247148004639, "alt_km": 627.7080765046712, "timestamp": "2025-12-10T04:57:29.262117+00:00", "meta": {"OBJECT_NAME": "LAPAN-TUBSAT", "OBJECT_ID": "2007-001A", "EPOCH": "2025-12-09T19:36:18.641088", "MEAN_MOTION": 14.85665148, "ECCENTRICITY": 0.0013721, "INCLINATION": 98.1257, "RA_OF_ASC_NODE": 333.913, "ARG_OF_PERICENTER": 82.6211, "MEAN_ANOMALY": 277.6562, "EPHEMERIS_TYPE": 0, "CLASSIFICATION_TYPE": "U", "NORAD_CAT_ID": 29709, "ELEMENT_SET_NO": 999, "REV_AT_EPOCH": 2303, "BSTAR": 0.00016287, "MEAN_MOTION_DOT": 1.356e-05, "MEAN_MOTION_DDOT": 0}, "tle": {"line1": "1 29709U 07001A   25343.81688242  .00001356  00000+0  16287-3 0  9992", "line2": "2 29709  98.1257 333.9130 0013721  82.6211 277.6562 14.85665148 23038"}}, "geometry": {"type": "Point", "coordinates": [5.355247148004639, -74.51465162929611]}}, {"type": "Feature", "properties": {"norad_id": 31113, "name": "HAIYANG-1B", "group": "resource", "lat": -52.77268156901128, "lon": -20.290821181276453, "alt_km": 796.9668897041765, "timestamp": "2025-12-10T04:57:29.262127+00:00", "meta": {"OBJECT_NAME": "HAIYANG-1B", "OBJECT_ID": "2007-010A", "EPOCH": "2025-12-09T20:49:01.643232", "MEAN_MOTION": 14.30963669, "ECCENTRICITY": 0.0014375, "INCLINATION": 98.3312, "RA_OF_ASC_NODE": 328.2642, "ARG_OF_PERICENTER": 45.9495, "MEAN_ANOMALY": 314.287, "EPHEMERIS_TYPE": 0, "CLASSIFICATION_TYPE": "U", "NORAD_CAT_ID": 31113, "ELEMENT_SET_NO": 999, "REV_AT_EPOCH": 97355, "BSTAR": 0.00010677, "MEAN_MOTION_DOT": 2.39e-06, "MEAN_MOTION_DDOT": 0}, "tle": {"line1": "1 31113U 07010A   25343.86738013  .00000239  00000+0  10677-3 0  9997", "line2": "2 31113  98.3312 328.2642 0014375  45.9495 314.2870 14.30963669973551"}}, "geometry": {"type": "Point", "coordinates": [-20.290821181276453, -52.77268156901128]}}, {"type": "Feature", "properties": {"norad_id": 31598, "name": "COSMO-SKYMED 1", "group": "resource", "lat": 31.9341468178383, "lon": -5.456349933824605, "alt_km": 577.9906408203615, "timestamp": "2025-12-10T04:57:29.262138+00:00", "meta": {"OBJECT_NAME": "COSMO-SKYMED 1", "OBJECT_ID": "2007-023A", "EPOCH": "2025-12-09T20:16:21.325728", "MEAN_MOTION": 14.9573006, "ECCENTRICITY": 0.0001046, "INCLINATION": 97.8835, "RA_OF_ASC_NODE": 169.2252, "ARG_OF_PERICENTER": 83.6484, "MEAN_ANOMALY": 276.4855, "EPHEMERIS_TYPE": 0, "CLASSIFICATION_TYPE": "U", "NORAD_CAT_ID": 31598, "ELEMENT_SET_NO": 999, "REV_AT_EPOCH": 147, "BSTAR": 0.00055295, "MEAN_MOTION_DOT": 6.103e-05, "MEAN_MOTION_DDOT": 0}, "tle": {"line1": "1 31598U 07023A   25343.84469127  .00006103  00000+0  55295-3 0  9994", "line2": "2 31598  97.8835 169.2252 0001046  83.6484 276.4855 14.95730060  1473"}}, "geometry": {"type": "Point", "coordinates": [-5.456349933824605, 31.9341468178383]}}, {"type": "Feature", "properties": {"norad_id": 31698, "name": "TERRASAR-X", "group": "resource", "lat": -49.06310980757308, "lon": -1.7042207291151228, "alt_km": 516.2631839501901, "timestamp": "2025-12-10T04:57:29.262148+00:00", "meta": {"OBJECT_NAME": "TERRASAR-X", "OBJECT_ID": "2007-026A", "EPOCH": "2025-12-09T11:47:13.204320", "MEAN_MOTION": 15.19146544, "ECCENTRICITY": 0.0001961, "INCLINATION": 97.4451, "RA_OF_ASC_NODE": 348.9193, "ARG_OF_PERICENTER": 86.8081, "MEAN_ANOMALY": 273.3378, "EPHEMERIS_TYPE": 0, "CLASSIFICATION_TYPE": "U", "NORAD_CAT_ID": 31698, "ELEMENT_SET_NO": 999, "REV_AT_EPOCH": 2442, "BSTAR": 0.00012751, "MEAN_MOTION_DOT": 2.611e-05, "MEAN_MOTION_DDOT": 0}, "tle": {"line1": "1 31698U 07026A   25343.49112505  .00002611  00000+0  12751-3 0  9994", "line2": "2 31698  97.4451 348.9193 0001961  86.8081 273.3378 15.19146544 24429"}}, "geometry": {"type": "Point", "coordinates": [-1.7042207291151228, -49.06310980757308]}}, {"type": "Feature", "properties": {"norad_id": 32060, "name": "WORLDVIEW-1 (WV-1)", "group": "resource", "lat": -78.90124734930538, "lon": -119.6571308356705, "alt_km": 499.7516964706447, "timestamp": "2025-12-10T04:57:29.262159+00:00", "meta": {"OBJECT_NAME": "WORLDVIEW-1 (WV-1)", "OBJECT_ID": "2007-041A", "EPOCH": "2025-12-09T18:21:45.684576", "MEAN_MOTION": 15.24610182, "ECCENTRICITY": 7.28e-05, "INCLINATION": 97.3837, "RA_OF_ASC_NODE": 101.2881, "ARG_OF_PERICENTER": 104.1233, "MEAN_ANOMALY": 256.0086, "EPHEMERIS_TYPE": 0, "CLASSIFICATION_TYPE": "U", "NORAD_CAT_ID": 32060, "ELEMENT_SET_NO": 999, "REV_AT_EPOCH": 1402, "BSTAR": 0.0005059, "MEAN_MOTION_DOT": 0.00012417, "MEAN_MOTION_DDOT": 0}, "tle": {"line1": "1 32060U 07041A   25343.76511209  .00012417  00000+0  50590-3 0  9997", "line2": "2 32060  97.3837 101.2881 0000728 104.1233 256.0086 15.24610182 14026"}}, "geometry": {"type": "Point", "coordinates": [-119.6571308356705, -78.90124734930538]}}]}